CCSDS_OMM_VERS = 2.0
CREATION_DATE  = 
ORIGINATOR     = 

OBJECT_NAME    = AQUA
OBJECT_ID      = 2002-022A
CENTER_NAME    = EARTH
REF_FRAME      = TEME
TIME_SYSTEM    = UTC
MEAN_ELEMENT_THEORY = SGP/SGP4

EPOCH          = 2026-03-19T22:40:15.674304
MEAN_MOTION    = 14.61999982
ECCENTRICITY   = .00007752
INCLINATION    = 98.4193
RA_OF_ASC_NODE = 46.4977
ARG_OF_PERICENTER = 112.4558
MEAN_ANOMALY   = 277.1745

EPHEMERIS_TYPE = 0
CLASSIFICATION_TYPE = U
NORAD_CAT_ID   = 27424
ELEMENT_SET_NO = 999
REV_AT_EPOCH   = 27023
BSTAR          = .17586079E-3
MEAN_MOTION_DOT = .832E-5
MEAN_MOTION_DDOT = 0

CCSDS_OMM_VERS = 2.0
CREATION_DATE  = 
ORIGINATOR     = 

OBJECT_NAME    = CZ-4B R/B
OBJECT_ID      = 2002-024C
CENTER_NAME    = EARTH
REF_FRAME      = TEME
TIME_SYSTEM    = UTC
MEAN_ELEMENT_THEORY = SGP/SGP4

EPOCH          = 2026-03-19T18:32:11.143680
MEAN_MOTION    = 14.14549359
ECCENTRICITY   = .00499705
INCLINATION    = 98.8816
RA_OF_ASC_NODE = 132.1272
ARG_OF_PERICENTER = 355.6453
MEAN_ANOMALY   = 112.4368

EPHEMERIS_TYPE = 0
CLASSIFICATION_TYPE = U
NORAD_CAT_ID   = 27432
ELEMENT_SET_NO = 999
REV_AT_EPOCH   = 23066
BSTAR          = .4083537E-4
MEAN_MOTION_DOT = .35E-6
MEAN_MOTION_DDOT = 0

CCSDS_OMM_VERS = 2.0
CREATION_DATE  = 
ORIGINATOR     = 

OBJECT_NAME    = MIDORI II (ADEOS-II)
OBJECT_ID      = 2002-056A
CENTER_NAME    = EARTH
REF_FRAME      = TEME
TIME_SYSTEM    = UTC
MEAN_ELEMENT_THEORY = SGP/SGP4

EPOCH          = 2026-03-19T21:13:28.768800
MEAN_MOTION    = 14.29292603
ECCENTRICITY   = .00011697
INCLINATION    = 98.7787
RA_OF_ASC_NODE = 37.4335
ARG_OF_PERICENTER = 29.4228
MEAN_ANOMALY   = 330.7019

EPHEMERIS_TYPE = 0
CLASSIFICATION_TYPE = U
NORAD_CAT_ID   = 27597
ELEMENT_SET_NO = 999
REV_AT_EPOCH   = 21175
BSTAR          = .11924E-3
MEAN_MOTION_DOT = .258E-5
MEAN_MOTION_DDOT = 0

CCSDS_OMM_VERS = 2.0
CREATION_DATE  = 
ORIGINATOR     = 

OBJECT_NAME    = H-2A R/B
OBJECT_ID      = 2002-056E
CENTER_NAME    = EARTH
REF_FRAME      = TEME
TIME_SYSTEM    = UTC
MEAN_ELEMENT_THEORY = SGP/SGP4

EPOCH          = 2026-03-19T21:31:16.749696
MEAN_MOTION    = 14.33767190
ECCENTRICITY   = .00710587
INCLINATION    = 98.3221
RA_OF_ASC_NODE = 38.8748
ARG_OF_PERICENTER = 130.5166
MEAN_ANOMALY   = 293.3134

EPHEMERIS_TYPE = 0
CLASSIFICATION_TYPE = U
NORAD_CAT_ID   = 27601
ELEMENT_SET_NO = 999
REV_AT_EPOCH   = 21557
BSTAR          = .95069164E-4
MEAN_MOTION_DOT = .231E-5
MEAN_MOTION_DDOT = 0

CCSDS_OMM_VERS = 2.0
CREATION_DATE  = 
ORIGINATOR     = 

OBJECT_NAME    = CZ-4B R/B
OBJECT_ID      = 2003-049C
CENTER_NAME    = EARTH
REF_FRAME      = TEME
TIME_SYSTEM    = UTC
MEAN_ELEMENT_THEORY = SGP/SGP4

EPOCH          = 2026-03-19T21:43:10.068960
MEAN_MOTION    = 14.55029304
ECCENTRICITY   = .00477421
INCLINATION    = 98.6888
RA_OF_ASC_NODE = 74.2113
ARG_OF_PERICENTER = 199.2542
MEAN_ANOMALY   = 160.6851

EPHEMERIS_TYPE = 0
CLASSIFICATION_TYPE = U
NORAD_CAT_ID   = 28059
ELEMENT_SET_NO = 999
REV_AT_EPOCH   = 18808
BSTAR          = .81590848E-4
MEAN_MOTION_DOT = .305E-5
MEAN_MOTION_DDOT = 0

CCSDS_OMM_VERS = 2.0
CREATION_DATE  = 
ORIGINATOR     = 

OBJECT_NAME    = CZ-2C R/B
OBJECT_ID      = 2004-012C
CENTER_NAME    = EARTH
REF_FRAME      = TEME
TIME_SYSTEM    = UTC
MEAN_ELEMENT_THEORY = SGP/SGP4

EPOCH          = 2026-03-19T17:03:36.775584
MEAN_MOTION    = 15.65653715
ECCENTRICITY   = .00129049
INCLINATION    = 97.7202
RA_OF_ASC_NODE = 144.9609
ARG_OF_PERICENTER = 268.3320
MEAN_ANOMALY   = 91.6460

EPHEMERIS_TYPE = 0
CLASSIFICATION_TYPE = U
NORAD_CAT_ID   = 28222
ELEMENT_SET_NO = 999
REV_AT_EPOCH   = 20584
BSTAR          = .41690781E-3
MEAN_MOTION_DOT = .42146E-3
MEAN_MOTION_DDOT = 0

CCSDS_OMM_VERS = 2.0
CREATION_DATE  = 
ORIGINATOR     = 

OBJECT_NAME    = SL-16 R/B
OBJECT_ID      = 2004-021B
CENTER_NAME    = EARTH
REF_FRAME      = TEME
TIME_SYSTEM    = UTC
MEAN_ELEMENT_THEORY = SGP/SGP4

EPOCH          = 2026-03-19T18:44:43.230624
MEAN_MOTION    = 14.14593755
ECCENTRICITY   = .00045542
INCLINATION    = 70.9997
RA_OF_ASC_NODE = 211.3144
ARG_OF_PERICENTER = 357.0332
MEAN_ANOMALY   = 3.0762

EPHEMERIS_TYPE = 0
CLASSIFICATION_TYPE = U
NORAD_CAT_ID   = 28353
ELEMENT_SET_NO = 999
REV_AT_EPOCH   = 12426
BSTAR          = -.81509152E-4
MEAN_MOTION_DOT = -.204E-5
MEAN_MOTION_DDOT = 0

CCSDS_OMM_VERS = 2.0
CREATION_DATE  = 
ORIGINATOR     = 

OBJECT_NAME    = CZ-4B R/B
OBJECT_ID      = 2004-035C
CENTER_NAME    = EARTH
REF_FRAME      = TEME
TIME_SYSTEM    = UTC
MEAN_ELEMENT_THEORY = SGP/SGP4

EPOCH          = 2026-03-19T15:49:34.038336
MEAN_MOTION    = 15.29227390
ECCENTRICITY   = .00301488
INCLINATION    = 97.3475
RA_OF_ASC_NODE = 112.7826
ARG_OF_PERICENTER = 294.4714
MEAN_ANOMALY   = 65.3382

EPHEMERIS_TYPE = 0
CLASSIFICATION_TYPE = U
NORAD_CAT_ID   = 28415
ELEMENT_SET_NO = 999
REV_AT_EPOCH   = 18143
BSTAR          = .21073772E-3
MEAN_MOTION_DOT = .5979E-4
MEAN_MOTION_DDOT = 0

CCSDS_OMM_VERS = 2.0
CREATION_DATE  = 
ORIGINATOR     = 

OBJECT_NAME    = CZ-2C R/B
OBJECT_ID      = 2004-046B
CENTER_NAME    = EARTH
REF_FRAME      = TEME
TIME_SYSTEM    = UTC
MEAN_ELEMENT_THEORY = SGP/SGP4

EPOCH          = 2026-03-19T17:20:57.709824
MEAN_MOTION    = 14.26995367
ECCENTRICITY   = .01403705
INCLINATION    = 98.1981
RA_OF_ASC_NODE = 353.0821
ARG_OF_PERICENTER = 124.9261
MEAN_ANOMALY   = 236.5203

EPHEMERIS_TYPE = 0
CLASSIFICATION_TYPE = U
NORAD_CAT_ID   = 28480
ELEMENT_SET_NO = 999
REV_AT_EPOCH   = 10993
BSTAR          = .53475333E-4
MEAN_MOTION_DOT = .104E-5
MEAN_MOTION_DDOT = 0

CCSDS_OMM_VERS = 2.0
CREATION_DATE  = 
ORIGINATOR     = 

OBJECT_NAME    = ARIANE 5 R/B
OBJECT_ID      = 2004-049H
CENTER_NAME    = EARTH
REF_FRAME      = TEME
TIME_SYSTEM    = UTC
MEAN_ELEMENT_THEORY = SGP/SGP4

EPOCH          = 2026-03-19T22:33:30.393504
MEAN_MOTION    = 14.85283719
ECCENTRICITY   = .00832584
INCLINATION    = 98.2641
RA_OF_ASC_NODE = 247.7817
ARG_OF_PERICENTER = 318.4972
MEAN_ANOMALY   = 40.9938

EPHEMERIS_TYPE = 0
CLASSIFICATION_TYPE = U
NORAD_CAT_ID   = 28499
ELEMENT_SET_NO = 999
REV_AT_EPOCH   = 14731
BSTAR          = .77464705E-4
MEAN_MOTION_DOT = .641E-5
MEAN_MOTION_DDOT = 0

CCSDS_OMM_VERS = 2.0
CREATION_DATE  = 
ORIGINATOR     = 

OBJECT_NAME    = CZ-2D R/B
OBJECT_ID      = 2005-024B
CENTER_NAME    = EARTH
REF_FRAME      = TEME
TIME_SYSTEM    = UTC
MEAN_ELEMENT_THEORY = SGP/SGP4

EPOCH          = 2026-03-19T23:14:35.596320
MEAN_MOTION    = 15.61029464
ECCENTRICITY   = .00040539
INCLINATION    = 97.3580
RA_OF_ASC_NODE = 94.4983
ARG_OF_PERICENTER = 17.5284
MEAN_ANOMALY   = 342.6113

EPHEMERIS_TYPE = 0
CLASSIFICATION_TYPE = U
NORAD_CAT_ID   = 28738
ELEMENT_SET_NO = 999
REV_AT_EPOCH   = 14138
BSTAR          = .42657194E-3
MEAN_MOTION_DOT = .35833E-3
MEAN_MOTION_DDOT = 0

CCSDS_OMM_VERS = 2.0
CREATION_DATE  = 
ORIGINATOR     = 

OBJECT_NAME    = ALOS (DAICHI)
OBJECT_ID      = 2006-002A
CENTER_NAME    = EARTH
REF_FRAME      = TEME
TIME_SYSTEM    = UTC
MEAN_ELEMENT_THEORY = SGP/SGP4

EPOCH          = 2026-03-19T20:24:42.663456
MEAN_MOTION    = 14.69840946
ECCENTRICITY   = .00007137
INCLINATION    = 98.1237
RA_OF_ASC_NODE = 34.7562
ARG_OF_PERICENTER = 82.4376
MEAN_ANOMALY   = 277.6911

EPHEMERIS_TYPE = 0
CLASSIFICATION_TYPE = U
NORAD_CAT_ID   = 28931
ELEMENT_SET_NO = 999
REV_AT_EPOCH   = 7497
BSTAR          = .20642889E-3
MEAN_MOTION_DOT = .1184E-4
MEAN_MOTION_DDOT = 0

