AQUA                    
1 27424U 02022A   26078.94462586  .00000832  00000+0  17586-3 0  9994
2 27424  98.4193  46.4977 0000775 112.4558 277.1745 14.61999982270232
CZ-4B R/B               
1 27432U 02024C   26078.77235120  .00000035  00000+0  40835-4 0  9997
2 27432  98.8816 132.1272 0049970 355.6453 112.4368 14.14549359230665
MIDORI II (ADEOS-II)    
1 27597U 02056A   26078.88436075  .00000258  00000+0  11924-3 0  9991
2 27597  98.7787  37.4335 0001169  29.4228 330.7019 14.29292603211754
H-2A R/B                
1 27601U 02056E   26078.89672164  .00000231  00000+0  95069-4 0  9993
2 27601  98.3221  38.8748 0071058 130.5166 293.3134 14.33767190215570
CZ-4B R/B               
1 28059U 03049C   26078.90497765  .00000305  00000+0  81591-4 0  9995
2 28059  98.6888  74.2113 0047742 199.2542 160.6851 14.55029304188082
CZ-2C R/B               
1 28222U 04012C   26078.71084231  .00042146  00000+0  41691-3 0  9992
2 28222  97.7202 144.9609 0012904 268.3320  91.6460 15.65653715205847
SL-16 R/B               
1 28353U 04021B   26078.78105591 -.00000204  00000+0 -81509-4 0  9991
2 28353  70.9997 211.3144 0004554 357.0332   3.0762 14.14593755124268
CZ-4B R/B               
1 28415U 04035C   26078.65942174  .00005979  00000+0  21074-3 0  9999
2 28415  97.3475 112.7826 0030148 294.4714  65.3382 15.29227390181435
CZ-2C R/B               
1 28480U 04046B   26078.72289016  .00000104  00000+0  53475-4 0  9996
2 28480  98.1981 353.0821 0140370 124.9261 236.5203 14.26995367109937
ARIANE 5 R/B            
1 28499U 04049H   26078.93993511  .00000641  00000+0  77465-4 0  9995
2 28499  98.2641 247.7817 0083258 318.4972  40.9938 14.85283719147317
CZ-2D R/B               
1 28738U 05024B   26078.96846755  .00035833  00000+0  42657-3 0  9990
2 28738  97.3580  94.4983 0004053  17.5284 342.6113 15.61029464141383
ALOS (DAICHI)           
1 28931U 06002A   26078.85049379  .00001184  00000+0  20643-3 0  9990
2 28931  98.1237  34.7562 0000713  82.4376 277.6911 14.69840946 74974
